STARLINK-2431           
1 47839U 21018BE  21171.58334491 -.00009891  00000-0 -34660-3 0  9993
2 47839  53.0529  58.1391 0001451  96.3045 283.8878 15.27858154 16672
STARLINK-2432           
1 47840U 21018BF  21171.58334491 -.01068021  00000-0 -40531-1 0  9998
2 47840  53.0480  47.9223 0001243  68.3478 250.6684 15.29227166 16816
STARLINK-2433           
1 47841U 21018BG  21171.58334491 -.01068629  00000-0 -40326-1 0  9995
2 47841  53.0479  47.8451 0001215  70.0222 262.3471 15.29410981 16816
STARLINK-2434           
1 47842U 21018BH  21171.43111870 -.00001113  00000-0 -55820-4 0  9996
2 47842  53.0564  77.6130 0002030  85.6766 274.4455 15.06385799 16389
STARLINK-2435           
1 47843U 21018BJ  21170.93949876  .00000633  00000-0  61367-4 0  9993
2 47843  53.0564  74.8219 0002047  87.3077 272.8146 15.06405119 16387
STARLINK-2446           
1 47844U 21018BK  21170.87177947 -.00000813  00000-0 -35648-4 0  9994
2 47844  53.0557  70.1259 0002290  90.5643 269.5609 15.06394901 16774
STARLINK-2453           
1 47845U 21018BL  21171.42098782 -.00000980  00000-0 -46853-4 0  9991
2 47845  53.0574  67.6631 0002167  80.3631 279.7603 15.06396426 16520
STARLINK-2456           
1 47846U 21018BM  21171.41729184  .00000765  00000-0  70278-4 0  9995
2 47846  53.0571  67.6790 0002262  86.6641 273.4606 15.06394472 16523
SHIYAN 9 (SY-9)         
1 47851U 21019A   21168.58984790 -.00000072  00000-0  16508-3 0  9999
2 47851  19.7981  63.2676 7205736 244.0582  27.8819  2.25966264  2220
YAOGAN-31 K             
1 47854U 21020A   21169.45213613  .00001339  00000-0  24175-2 0  9994
2 47854  63.4107 263.6636 0013010 323.7354  36.1614 13.45215785 13090
2021-020B               
1 47855U 21020B   21169.48248316 -.00000159  00000-0 -12066-3 0  9994
2 47855  63.4125 264.2347 0008135 329.0138  31.0415 13.43808830 13098
YAOGAN-31 L             
1 47856U 21020C   21169.45231628  .00001064  00000-0  19520-2 0  9995
2 47856  63.4105 264.5423 0013039 322.9804  36.9415 13.45215138 13084
YAOGAN-31 M             
1 47857U 21020D   21169.45234967 -.00000090  00000-0  00000-0 0  9995
2 47857  63.4108 263.6699 0012878 323.1120  36.9017 13.45208945 13094
STARLINK-2258           
1 47860U 21021A   21171.58334491 -.00727356  00000-0 -51738-1 0  9997
2 47860  53.0516  96.9510 0001445  65.9012  89.7308 15.06957530 15859
STARLINK-2280           
1 47861U 21021B   21171.58334491 -.00048142  00000-0 -34230-3 0  9997
2 47861  53.0481  90.1563 0002368  28.0121 288.9382 15.73072474 15945
STARLINK-2291           
1 47862U 21021C   21171.58334491  .00008351  00000-0  64297-4 0  9991
2 47862  53.0481  90.1680 0002328  29.4305 281.8176 15.73034549 15945
STARLINK-2293           
1 47863U 21021D   21171.58334491 -.01090437  00000-0 -17967-1 0  9990
2 47863  53.0475  90.7382 0001759  30.6276   3.9959 15.54469783 15934
STARLINK-2304           
1 47864U 21021E   21171.58334491  .00013247  00000-0  99441-4 0  9992
2 47864  53.0481  90.1722 0002652  24.0904 285.2869 15.73008300 15943
STARLINK-2310           
1 47865U 21021F   21171.58334491 -.01092046  00000-0 -17139-1 0  9991
2 47865  53.0477  90.6478 0001217  65.8143  10.2093 15.55790663 15941
STARLINK-2320           
1 47866U 21021G   21171.58334491 -.01091658  00000-0 -17251-1 0  9995
2 47866  53.0475  90.6266 0001189  68.5983   1.5458 15.55605458 15940
STARLINK-2321           
1 47867U 21021H   21171.58334491  .00004634  00000-0  37630-4 0  9997
2 47867  53.0479  90.1682 0002493  19.6149 290.9549 15.73064421 15957
STARLINK-2323           
1 47868U 21021J   21171.58334491 -.00049088  00000-0 -34698-3 0  9992
2 47868  53.0488  90.1752 0002241  29.2594 278.1151 15.73218335 15950
STARLINK-2324           
1 47869U 21021K   21171.58334491 -.00050706  00000-0 -35857-3 0  9990
2 47869  53.0490  90.1673 0002481  22.4391 289.3760 15.73221541 15955
STARLINK-2326           
1 47870U 21021L   21171.58334491  .00009234  00000-0  63817-3 0  9997
2 47870  53.0532 101.9303 0001980  80.5148  73.2147 15.06391110 15790
STARLINK-2327           
1 47871U 21021M   21171.58334491  .00028499  00000-0  20659-3 0  9999
2 47871  53.0489  90.1699 0002400  23.8291 286.0630 15.73216820 15953
STARLINK-2328           
1 47872U 21021N   21171.58334491  .00030814  00000-0  22323-3 0  9994
2 47872  53.0491  90.1735 0001944  28.2928 280.3843 15.73188605 15958
STARLINK-2329           
1 47873U 21021P   21171.58334491  .00026666  00000-0  19368-3 0  9990
2 47873  53.0489  90.1561 0002244  29.3135 286.9350 15.73211463 15953
STARLINK-2330           
1 47874U 21021Q   21171.58334491  .00050254  00000-0  36082-3 0  9993
2 47874  53.0489  90.1757 0002214  14.4810 293.5195 15.73163637 15953
STARLINK-2331           
1 47875U 21021R   21171.58334491 -.01090234  00000-0 -18097-1 0  9993
2 47875  53.0461  90.7140 0001202  58.2346 330.4441 15.54273212 15946
STARLINK-2332           
1 47876U 21021S   21171.58334491 -.01090936  00000-0 -17734-1 0  9990
2 47876  53.0465  90.6570 0001131  73.9189 332.9088 15.54841949 15949
STARLINK-2333           
1 47877U 21021T   21171.58334491 -.01089887  00000-0 -18219-1 0  9993
2 47877  53.0459  90.6925 0001100  71.4707 311.0710 15.54081918 15944
STARLINK-2335           
1 47878U 21021U   21171.58334491 -.01092606  00000-0 -16551-1 0  9994
2 47878  53.0470  90.5847 0001316  64.9569  58.9383 15.56738351 15958
STARLINK-2336           
1 47879U 21021V   21171.58334491  .00009045  00000-0  62569-3 0  9999
2 47879  53.0621 101.8805 0001675  77.3798 231.2513 15.06379114 15793
STARLINK-2337           
1 47880U 21021W   21171.58334491 -.00001279  00000-0 -66984-4 0  9990
2 47880  53.0496  96.9378 0001483  63.8312  17.2734 15.06394992 15869
STARLINK-2339           
1 47881U 21021X   21171.58334491 -.01093946  00000-0 -75832-1 0  9993
2 47881  53.0468  96.9450 0001497  59.9858 198.7612 15.08135740 15862
STARLINK-2340           
1 47882U 21021Y   21171.58334491 -.01091086  00000-0 -17612-1 0  9999
2 47882  53.0466  90.6748 0001161  67.9762 344.7630 15.55032289 15941
STARLINK-2342           
1 47883U 21021Z   21171.58334491 -.01073656  00000-0 -36510-1 0  9991
2 47883  53.0520  92.9092 0001472  49.3782   6.4561 15.32745132 15916
STARLINK-2343           
1 47884U 21021AA  21171.58334491 -.00000679  00000-0 -26670-4 0  9995
2 47884  53.0452  97.0207 0001482  64.1854 271.7942 15.06394344 15850
STARLINK-2344           
1 47885U 21021AB  21171.58334491  .00009149  00000-0  63249-3 0  9997
2 47885  53.0511 101.9415 0001675  85.0779 283.5456 15.06390528 15788
STARLINK-2345           
1 47886U 21021AC  21171.58334491 -.01068863  00000-0 -39958-1 0  9997
2 47886  53.0449  92.9040 0001291  63.4468 235.5085 15.29713445 15913
STARLINK-2346           
1 47887U 21021AD  21171.58334491 -.01071577  00000-0 -74565-1 0  9997
2 47887  53.0480  96.9435 0001569  58.3700 175.7332 15.07936246 15867
STARLINK-2348           
1 47888U 21021AE  21171.58334491 -.01091239  00000-0 -17488-1 0  9996
2 47888  53.0465  90.6351 0001235  59.3212 359.1674 15.55226445 15940
STARLINK-2349           
1 47889U 21021AF  21171.58334491 -.01090776  00000-0 -17856-1 0  9991
2 47889  53.0463  90.6566 0001154  68.1548 332.7072 15.54651918 15942
STARLINK-2350           
1 47890U 21021AG  21171.50001157 -.01129681  00000-0 -77205-1 0  9997
2 47890  53.0478  97.3185 0001483  72.7462 126.8697 15.08748351 15854
STARLINK-2351           
1 47891U 21021AH  21171.58334491 -.00000883  00000-0 -40409-4 0  9996
2 47891  53.0491  96.9417 0001369  84.1166 291.8630 15.06394748 15860
STARLINK-2352           
1 47892U 21021AJ  21171.16667824 -.01130390  00000-0 -76095-1 0  9995
2 47892  53.0465  98.8198 0001668  55.8657 112.9270 15.09297053 15802
STARLINK-2353           
1 47893U 21021AK  21171.50001157 -.00067620  12453-4 -19933-3 0  9998
2 47893  53.0418  87.4732 0001338  55.0723 196.7280 15.90916108 15988
STARLINK-2354           
1 47894U 21021AL  21171.16667824 -.01094330  00000-0 -16164-1 0  9991
2 47894  53.0475  92.6419 0001121  78.6166 212.3292 15.57414628 15884
STARLINK-2355           
1 47895U 21021AM  21171.16667824 -.01093258  00000-0 -16493-1 0  9995
2 47895  53.0470  92.6406 0001174  74.5035 200.0989 15.56850449 15885
STARLINK-2356           
1 47896U 21021AN  21171.58334491  .00009225  00000-0  63757-3 0  9998
2 47896  53.0524 101.9306 0001827  75.9788 137.7615 15.06390958 15795
STARLINK-2357           
1 47897U 21021AP  21171.16667824 -.01093932  00000-0 -16391-1 0  9993
2 47897  53.0476  92.6827 0001239  60.1459 220.0237 15.57032979 15882
STARLINK-2358           
1 47898U 21021AQ  21171.16667824 -.01094100  00000-0 -16274-1 0  9992
2 47898  53.0475  92.6805 0001140  74.2680 210.9932 15.57228488 15883
STARLINK-2359           
1 47899U 21021AR  21171.50001157 -.00013039  00000-0 -88464-4 0  9996
2 47899  53.0493  90.5778 0002119  21.7495 179.7070 15.73233015 15940
STARLINK-2360           
1 47900U 21021AS  21171.58334491 -.01091068  00000-0 -17544-1 0  9994
2 47900  53.0494  90.5889 0001168  75.1331 355.0427 15.55136197 15940
STARLINK-2361           
1 47901U 21021AT  21171.50001157 -.00039449  00000-0 -27783-3 0  9999
2 47901  53.0491  90.5683 0002114  20.4805 184.8081 15.73204212 15949
STARLINK-2362           
1 47902U 21021AU  21171.50001157 -.00000602  00000-0 -21537-4 0  9991
2 47902  53.0505  97.3116 0001391  78.8397 224.9709 15.06394746 15841
STARLINK-2363           
1 47903U 21021AV  21171.58334491  .00022383  00000-0  16360-3 0  9995
2 47903  53.0492  90.1659 0002558  13.0645 299.3661 15.73177016 15951
STARLINK-2364           
1 47904U 21021AW  21171.50001157 -.00027770  00000-0 -19367-3 0  9995
2 47904  53.0493  90.5752 0002371  25.4413 177.3062 15.73241085 15941
STARLINK-2365           
1 47905U 21021AX  21171.16667824  .00052286  00000-0  37496-3 0  9998
2 47905  53.0489  92.2357 0002616  31.0429  80.8469 15.73173858 15883
STARLINK-2366           
1 47906U 21021AY  21171.58334491  .00048867  00000-0  35055-3 0  9995
2 47906  53.0491  90.1614 0001977  22.0031 292.3351 15.73196752 15954
